{
    "links": {
        "self": "http://www.neowsapp.com/rest/v1/neo/3164415?api_key=iIulBulltgU6a56xZRHN4H3l9WmuAYTsLGpBGhQ2"
    },
    "id": "3164415",
    "neo_reference_id": "3164415",
    "name": "(2003 UR25)",
    "designation": "2003 UR25",
    "nasa_jpl_url": "http://ssd.jpl.nasa.gov/sbdb.cgi?sstr=3164415",
    "absolute_magnitude_h": 25.5,
    "estimated_diameter": {
        "kilometers": {
            "estimated_diameter_min": 0.0211132445,
            "estimated_diameter_max": 0.0472106499
        },
        "meters": {
            "estimated_diameter_min": 21.113244479,
            "estimated_diameter_max": 47.2106498806
        },
        "miles": {
            "estimated_diameter_min": 0.0131191578,
            "estimated_diameter_max": 0.0293353287
        },
        "feet": {
            "estimated_diameter_min": 69.2691770164,
            "estimated_diameter_max": 154.8905885541
        }
    },
    "is_potentially_hazardous_asteroid": false,
    "close_approach_data": [
        {
            "close_approach_date": "2003-10-31",
            "close_approach_date_full": "2003-Oct-31 18:03",
            "epoch_date_close_approach": 1067623380000,
            "relative_velocity": {
                "kilometers_per_second": "8.9017632524",
                "kilometers_per_hour": "32046.3477086198",
                "miles_per_hour": "19912.354219281"
            },
            "miss_distance": {
                "astronomical": "0.0406702858",
                "lunar": "15.8207411762",
                "kilometers": "6084188.127971246",
                "miles": "3780539.1967893548"
            },
            "orbiting_body": "Earth"
        }
    ],
    "orbital_data": {
        "orbit_id": "6",
        "orbit_determination_date": "2017-04-06 09:13:34",
        "first_observation_date": "2003-10-25",
        "last_observation_date": "2003-10-25",
        "data_arc_in_days": null,
        "observations_used": 13,
        "orbit_uncertainty": "9",
        "minimum_orbit_intersection": ".0349133",
        "jupiter_tisserand_invariant": "3.781",
        "epoch_osculation": "2452937.5",
        "eccentricity": ".4924908797181258",
        "semi_major_axis": "1.903640787950894",
        "inclination": "5.522166181708932",
        "ascending_node_longitude": "23.55385805446365",
        "orbital_period": "959.3474581155771",
        "perihelion_distance": ".9661150616256522",
        "perihelion_argument": "47.78851135296436",
        "aphelion_distance": "2.841166514276136",
        "perihelion_time": "2452970.707860279259",
        "mean_anomaly": "347.5385819815316",
        "mean_motion": ".3752550725543582",
        "equinox": "J2000",
        "orbit_class": {
            "orbit_class_type": "APO",
            "orbit_class_description": "Near-Earth asteroid orbits which cross the Earth’s orbit similar to that of 1862 Apollo",
            "orbit_class_range": "a (semi-major axis) > 1.0 AU; q (perihelion) < 1.017 AU"
        }
    },
    "is_sentry_object": false
}